satNo,name,line1,line2,inclination,apogee,raan,argument_of_perigee,eccentricity,mean_motion,hdbscan_labels
55963,STARLINK-5924,1 55963U 23037BB  26027.29530469 -.00000754  00000-0 -55425-4 0  9991,2 55963  70.0004   8.7873 0002684 261.3878  98.6977 14.98342582158274,70.0004,581.0194037484611,8.7873,261.3878,0.0002684,14.98342582,190
55964,STARLINK-5895,1 55964U 23037BC  26027.29970352  .00037296  00000-0  25886-2 0  9996,2 55964  69.9997   6.3481 0006819 297.9148  62.1324 15.05379284158338,69.9997,562.2032025777557,6.3481,297.9148,0.0006819,15.05379284,190
55965,STARLINK-5894,1 55965U 23037BD  26027.27861229 -.00000475  00000-0 -32045-4 0  9995,2 55965  70.0007   8.7291 0002821 268.6230  91.4606 14.98330377158277,70.0007,581.1523741889074,8.7291,268.623,0.0002821,14.98330377,190
55973,TIANMU-1 03,1 55973U 23039A   26027.25545498  .00024794  00000-0  57154-3 0  9996,2 55973  97.5129 196.2365 0002449 244.0221 116.0774 15.42575624159079,97.5129,447.31734636397937,196.2365,244.0221,0.0002449,15.42575624,65
55974,TIANMU-1 04,1 55974U 23039B   26027.28941461  .00024495  00000-0  55772-3 0  9992,2 55974  97.5062 195.4450 0003192 239.6005 120.4927 15.42947047159080,97.5062,446.7294804477431,195.445,239.6005,0.0003192,15.42947047,65
55975,TIANMU-1 05,1 55975U 23039C   26027.29539095  .00023383  00000-0  54015-3 0  9994,2 55975  97.5109 195.9445 0002261 275.0885  85.0104 15.42525645159065,97.5109,447.3364689188795,195.9445,275.0885,0.0002261,15.42525645,65
55976,TIANMU-1 06,1 55976U 23039D   26027.29015168  .00024940  00000-0  56699-3 0  9995,2 55976  97.5119 196.4424 0002576 266.1707  93.9246 15.42989558159087,97.5119,446.18442567155694,196.4424,266.1707,0.0002576,15.42989558,65
55978,COSMOS 2567,1 55978U 23040A   26027.27329713  .00007695  00000-0  30236-3 0  9998,2 55978  97.5862 311.5682 0013783 125.0220 235.2314 15.25890054158589,97.5862,504.71482590055746,311.5682,125.022,0.0013783,15.25890054,-1
55982,GLOBAL-19,1 55982U 23041B   26027.08623745  .00025362  00000-0  66689-3 0  9997,2 55982  42.0031 305.1364 0003213 268.4022  91.6449 15.38044885160192,42.0031,461.2227618315499,305.1364,268.4022,0.0003213,15.38044885,-1
55983,GLOBAL-5,1 55983U 23041C   26025.94814060  .00025704  00000-0  67799-3 0  9996,2 55983  42.0039 311.2848 0002613 294.3172  65.7394 15.37945800160022,42.0039,461.1063917669449,311.2848,294.3172,0.0002613,15.379458,-1
55986,STARLINK-5905,1 55986U 23042A   26026.72496345 -.00001046  00000-0 -62439-4 0  9991,2 55986  43.0011 284.4992 0000651 232.2299 127.8485 15.02525545157410,43.0011,566.7003289931463,284.4992,232.2299,6.51e-05,15.02525545,913
55987,STARLINK-5915,1 55987U 23042B   26026.44128663  .00002935  00000-0  23218-3 0  9993,2 55987  43.0030 285.8051 0001473 284.5638  75.5041 15.02547812156555,43.003,567.2020228901264,285.8051,284.5638,0.0001473,15.02547812,655
55988,STARLINK-5916,1 55988U 23042C   26026.95202491  .00004754  00000-0  36670-3 0  9999,2 55988  43.0040 282.7699 0001766 248.8173 111.2481 15.02540477156638,43.004,567.427863207871,282.7699,248.8173,0.0001766,15.02540477,1259
55989,STARLINK-5947,1 55989U 23042D   26026.78033874  .00001159  00000-0  10086-3 0  9997,2 55989  43.0027 284.0536 0001325 264.4026  95.6666 15.02532560156602,43.0027,567.1463043347458,284.0536,264.4026,0.0001325,15.0253256,1103
55990,STARLINK-5946,1 55990U 23042E   26026.72163790 -.00000075  00000-0  95085-5 0  9995,2 55990  43.0059 284.4754 0001531 273.6195  86.4472 15.02526204156592,43.0059,567.3087781423646,284.4754,273.6195,0.0001531,15.02526204,913
55991,STARLINK-5948,1 55991U 23042F   26026.76479370  .00003089  00000-0  24356-3 0  9992,2 55991  43.0037 283.9347 0001153 269.5791  90.4919 15.02543769156605,43.0037,566.9924787921933,283.9347,269.5791,0.0001153,15.02543769,1103
55993,STARLINK-5969,1 55993U 23042H   26026.71718924  .00001630  00000-0  13566-3 0  9991,2 55993  43.0032 284.4360 0000973 257.1637 102.9096 15.02537455156592,43.0032,566.8870456304792,284.436,257.1637,9.73e-05,15.02537455,913
55994,STARLINK-5956,1 55994U 23042J   26026.97089155  .00000571  00000-0  57379-4 0  9991,2 55994  43.0044 282.9017 0001500 257.5448 102.5227 15.02534074156630,43.0044,567.2630449992353,282.9017,257.5448,0.00015,15.02534074,-1
55996,STARLINK-5903,1 55996U 23042L   26026.75814583 -.00000747  00000-0 -40291-4 0  9992,2 55996  42.9975 283.8827 0000894 316.0122  44.0649 15.02518290156604,42.9975,566.8912373973214,283.8827,316.0122,8.94e-05,15.0251829,1103
55998,STARLINK-5902,1 55998U 23042N   26026.95313107  .00000609  00000-0  60132-4 0  9993,2 55998  43.0038 282.7682 0001336 267.1820  92.8869 15.02535948156635,43.0038,567.1435055954037,282.7682,267.182,0.0001336,15.02535948,1259
55999,STARLINK-5901,1 55999U 23042P   26026.96088550  .00002105  00000-0  17080-3 0  9992,2 55999  43.0026 282.8244 0001256 262.2675  97.8025 15.02545512156630,43.0026,567.058566293723,282.8244,262.2675,0.0001256,15.02545512,-1
56000,STARLINK-5910,1 56000U 23042Q   26026.94091802  .00000316  00000-0  38491-4 0  9990,2 56000  43.0033 282.6732 0001437 284.6285  75.4398 15.02535548156631,43.0033,567.2148028626629,282.6732,284.6285,0.0001437,15.02535548,1260
56001,STARLINK-5944,1 56001U 23042R   26026.75037868  .00003662  00000-0  28605-3 0  9994,2 56001  43.0035 283.8206 0001448 278.2874  81.7805 15.02527668156602,43.0035,567.2466920999838,283.8206,278.2874,0.0001448,15.02527668,1104
56002,STARLINK-5799,1 56002U 23042S   26027.27664057  .00000715  00000-0  68008-4 0  9997,2 56002  43.0045 280.8908 0000969 273.6960  86.3772 15.02535511156680,43.0045,566.8902549610137,280.8908,273.696,9.69e-05,15.02535511,706
56003,STARLINK-5789,1 56003U 23042T   26027.02293804 -.00002105  00000-0 -14079-3 0  9994,2 56003  43.0035 282.4307 0001091 272.6841  87.3876 15.02542241156645,43.0035,566.9541718638176,282.4307,272.6841,0.0001091,15.02542241,-1
56004,STARLINK-5787,1 56004U 23042U   26026.73815537  .00000869  00000-0  79399-4 0  9995,2 56004  43.0051 283.7326 0001031 267.5358  92.5367 15.02536639156602,43.0051,566.9297933672648,283.7326,267.5358,0.0001031,15.02536639,1104
56005,STARLINK-5801,1 56005U 23042V   26026.94758406  .00000420  00000-0  46139-4 0  9999,2 56005  43.0047 282.7264 0001322 263.0773  96.9919 15.02531213156630,43.0047,567.1483698043135,282.7264,263.0773,0.0001322,15.02531213,1259
56006,STARLINK-5794,1 56006U 23042W   26026.93315466  .00000691  00000-0  66192-4 0  9995,2 56006  43.0043 282.6141 0000961 261.6206  98.4528 15.02531373156633,43.0043,566.8974432250903,282.6141,261.6206,9.61e-05,15.02531373,-1
56007,STARLINK-5806,1 56007U 23042X   26026.93649660  .00014749  00000-0  11063-2 0  9996,2 56007  43.0043 282.6424 0002232 246.2469 113.8139 15.02476593156633,43.0043,567.9478219109085,282.6424,246.2469,0.0002232,15.02476593,1260
56008,STARLINK-5803,1 56008U 23042Y   26026.71940191  .00000860  00000-0  78764-4 0  9998,2 56008  42.9999 284.4335 0001449 272.7607  87.3069 15.02535871156586,42.9999,567.2221331846732,284.4335,272.7607,0.0001449,15.02535871,913
56009,STARLINK-5964,1 56009U 23042Z   26026.73482372  .00000865  00000-0  79131-4 0  9997,2 56009  43.0034 283.7097 0001361 270.3043  89.7644 15.02536973156609,43.0034,567.1576932558036,283.7097,270.3043,0.0001361,15.02536973,-1
56010,STARLINK-5968,1 56010U 23042AA  26026.39800384  .00000876  00000-0  79925-4 0  9991,2 56010  43.0037 285.4765 0000955 280.6343  79.4392 15.02535651156552,43.0037,566.8801118939211,285.4765,280.6343,9.55e-05,15.02535651,655
56011,STARLINK-5936,1 56011U 23042AB  26026.99445418  .00001783  00000-0  14701-3 0  9999,2 56011  43.0032 270.0665 0000830 279.6820  80.3928 15.02533002156786,43.0032,566.801550996907,270.0665,279.682,8.3e-05,15.02533002,876
56012,STARLINK-5940,1 56012U 23042AC  26026.40170471 -.00000037  00000-0  12360-4 0  9992,2 56012  43.0033 273.3566 0001155 271.5568  88.5143 15.02533784156691,43.0033,567.0246035504639,273.3566,271.5568,0.0001155,15.02533784,-1
56013,STARLINK-5941,1 56013U 23042AD  26026.79353563 -.00000706  00000-0 -37192-4 0  9994,2 56013  43.0023 283.2812 0001208 289.7627  70.3085 15.02542743156612,43.0023,567.0337917392337,283.2812,289.7627,0.0001208,15.02542743,1083
56014,STARLINK-5942,1 56014U 23042AE  26026.72743080  .00000813  00000-0  75244-4 0  9992,2 56014  43.0035 271.4990 0001335 283.5649  76.5044 15.02543407156744,43.0035,567.119850074512,271.499,283.5649,0.0001335,15.02543407,1022
56015,STARLINK-5939,1 56015U 23042AF  26026.73075827  .00000897  00000-0  81481-4 0  9993,2 56015  43.0015 271.5259 0001276 266.0647  94.0050 15.02540537156743,43.0015,567.0877555701118,271.5259,266.0647,0.0001276,15.02540537,1022
56016,STARLINK-5943,1 56016U 23042AG  26026.91021938  .00000650  00000-0  63211-4 0  9996,2 56016  43.0043 270.2911 0001287 275.6592  84.4104 15.02533455156770,43.0043,567.1171876948868,270.2911,275.6592,0.0001287,15.02533455,877
56017,STARLINK-5934,1 56017U 23042AH  26026.92132103 -.00003537  00000-0 -24694-3 0  9995,2 56017  43.0027 270.3743 0001135 259.8677 100.2037 15.02529280156770,43.0027,567.0245940735899,270.3743,259.8677,0.0001135,15.0252928,877
56018,STARLINK-5945,1 56018U 23042AJ  26026.71189129  .00000975  00000-0  87236-4 0  9996,2 56018  43.0048 271.3796 0001736 245.5146 114.5515 15.02534961156741,43.0048,567.4240327818021,271.3796,245.5146,0.0001736,15.02534961,1023
56019,STARLINK-5949,1 56019U 23042AK  26026.92464465  .00000748  00000-0  70433-4 0  9998,2 56019  43.0023 270.3994 0001194 277.7468  82.3239 15.02539069156778,43.0023,567.0353895385917,270.3994,277.7468,0.0001194,15.02539069,877
56020,STARLINK-5912,1 56020U 23042AL  26026.71522173  .00000900  00000-0  81643-4 0  9993,2 56020  43.0013 271.4089 0000696 286.1617  73.9149 15.02534743156749,43.0013,566.7032329820432,271.4089,286.1617,6.96e-05,15.02534743,1023
56021,STARLINK-5907,1 56021U 23042AM  26026.91799661  .00005105  00000-0  39295-3 0  9991,2 56021  43.0037 270.3487 0000808 216.0599 144.0189 15.02512100156772,43.0037,566.8506316870219,270.3487,216.0599,8.08e-05,15.025121,877
